[{"OBJECT_NAME":"STARLINK-4344","OBJECT_ID":"2022-077AF","EPOCH":"2026-03-09T12:18:42.862176","MEAN_MOTION":15.05647696,"ECCENTRICITY":0.00013562,"INCLINATION":97.6026,"RA_OF_ASC_NODE":251.0167,"ARG_OF_PERICENTER":90.2104,"MEAN_ANOMALY":269.9278,"EPHEMERIS_TYPE":0,"CLASSIFICATION_TYPE":"U","NORAD_CAT_ID":53072,"ELEMENT_SET_NO":999,"REV_AT_EPOCH":20095,"BSTAR":2.2299596e-5,"MEAN_MOTION_DOT":2.61e-6,"MEAN_MOTION_DDOT":0},{"OBJECT_NAME":"UMBRA-07","OBJECT_ID":"2023-174AT","EPOCH":"2026-03-09T17:14:20.565312","MEAN_MOTION":15.07174057,"ECCENTRICITY":0.00041314,"INCLINATION":97.3902,"RA_OF_ASC_NODE":128.3323,"ARG_OF_PERICENTER":75.5473,"MEAN_ANOMALY":284.6213,"EPHEMERIS_TYPE":0,"CLASSIFICATION_TYPE":"U","NORAD_CAT_ID":58297,"ELEMENT_SET_NO":999,"REV_AT_EPOCH":12842,"BSTAR":0.0008461425,"MEAN_MOTION_DOT":0.00012685,"MEAN_MOTION_DDOT":0}]
