STARLINK-4344           
1 53072U 22077AF  26068.51299609  .00000261  00000+0  22300-4 0  9997
2 53072  97.6026 251.0167 0001356  90.2104 269.9278 15.05647696200950
UMBRA-07                
1 58297U 23174AT  26068.71829358  .00012685  00000+0  84614-3 0  9990
2 58297  97.3902 128.3323 0004131  75.5473 284.6213 15.07174057128425
